NORAD_CAT_ID,OBJECT_NAME,OBJECT_TYPE,EPOCH,MEAN_MOTION,ECCENTRICITY,INCLINATION,RA_OF_ASC_NODE,ARG_OF_PERICENTER,MEAN_ANOMALY,BSTAR,MEAN_MOTION_DOT,MEAN_MOTION_DDOT,TLE_LINE0,TLE_LINE1,TLE_LINE2,SEMIMAJOR_AXIS,PERIOD,APOGEE,PERIGEE,DECAYED
53987.0,STARLINK-5112,PAYLOAD,2022-10-19 14:00:01,15.73171311,0.0002243,53.2184,24.196,25.079,179.8788,0.00046273,0.00064747,0.0,0 STARLINK-5112,1 53987U 22125Z   22292.58334491  .00064747  00000-0  46273-3 0  9991,2 53987  53.2184  24.1960 0002243  25.0790 179.8788 15.73171311  1305,6727.977,91.535,351.351,348.333,0.0
53987.0,STARLINK-5112,PAYLOAD,2022-10-19 20:00:01,15.73212702,0.0002243,53.2176,22.9555,22.202,159.4468,0.00054735,0.0007695,0.0,0 STARLINK-5112,1 53987U 22125Z   22292.83334491  .00076950  00000-0  54735-3 0  9990,2 53987  53.2176  22.9555 0002243  22.2020 159.4468 15.73212702  2576,6727.859,91.532,351.233,348.215,0.0
53987.0,STARLINK-5112,PAYLOAD,2022-10-19 22:00:00,15.73248619,0.0002174,53.2178,22.5416,22.0081,271.8733,0.00015438,0.00021146,0.0,0 STARLINK-5112,1 53987U 22125Z   22292.91667824  .00021146  00000-0  15438-3 0  9992,2 53987  53.2178  22.5416 0002174  22.0081 271.8733 15.73248619  1308,6727.757,91.53,351.084,348.159,0.0
53987.0,STARLINK-5112,PAYLOAD,2022-10-20 04:00:00,15.73215466,0.0002061,53.2187,21.3071,23.1761,247.4423,0.00028851,0.00040092,0.0,0 STARLINK-5112,1 53987U 22125Z   22293.16667824  .00040092  00000-0  28851-3 0  9994,2 53987  53.2187  21.3071 0002061  23.1761 247.4423 15.73215466  2629,6727.851,91.532,351.103,348.329,0.0
53987.0,STARLINK-5112,PAYLOAD,2022-10-20 12:00:00,15.73249964,0.0002254,53.2187,19.6586,18.8804,340.7024,-0.00043564,-0.00061454,0.0,0 STARLINK-5112,1 53987U 22125Z   22293.50001157 -.00061454  00000-0 -43564-3 0  9998,2 53987  53.2187  19.6586 0002254  18.8804 340.7024 15.73249964  2672,6727.753000000002,91.53,351.134,348.101,0.0
53987.0,STARLINK-5112,PAYLOAD,2022-10-20 14:00:01,15.73194778,0.0002313,53.2187,19.2476,17.5915,94.2296,0.00013054,0.00017735,0.0,0 STARLINK-5112,1 53987U 22125Z   22293.58334491  .00017735  00000-0  13054-3 0  9998,2 53987  53.2187  19.2476 0002313  17.5915  94.2296 15.73194778  1304,6727.91,91.533,351.331,348.219,0.0
53987.0,STARLINK-5112,PAYLOAD,2022-10-20 22:00:00,15.73260684,0.0002264,53.2181,17.5953,19.1305,181.6103,-0.00064008,-0.00089744,0.0,0 STARLINK-5112,1 53987U 22125Z   22293.91667824 -.00089744  00000-0 -64008-3 0  9990,2 53987  53.2181  17.5953 0002264  19.1305 181.6103 15.73260684  1303,6727.722,91.53,351.11,348.064,0.0
53987.0,STARLINK-5112,PAYLOAD,2022-10-21 04:00:00,15.73211531,0.0002195999999999,53.2181,16.3577,25.8536,151.6301,-0.00020339,-0.00029084,0.0,0 STARLINK-5112,1 53987U 22125Z   22294.16667824 -.00029084  00000-0 -20339-3 0  9998,2 53987  53.2181  16.3577 0002196  25.8536 151.6301 15.73211531  2783,6727.861999999999,91.533,351.205,348.25,0.0
53987.0,STARLINK-5112,PAYLOAD,2022-10-21 12:00:00,15.73178529,0.0002589,53.2184,14.7112,28.2004,238.2352,0.00035175,0.00048993,0.0,0 STARLINK-5112,1 53987U 22125Z   22294.50001157  .00048993  00000-0  35175-3 0  9999,2 53987  53.2184  14.7112 0002589  28.2004 238.2352 15.73178529  2839,6727.956,91.534,351.56300000000016,348.08,0.0
53987.0,STARLINK-5112,PAYLOAD,2022-10-21 14:00:01,15.73175959,0.0002611,53.2184,14.2981,28.2127,350.4524,0.00056978,0.00080035,0.0,0 STARLINK-5112,1 53987U 22125Z   22294.58334491  .00080035  00000-0  56978-3 0  9994,2 53987  53.2184  14.2981 0002611  28.2127 350.4524 15.73175959  1303,6727.964,91.535,351.585,348.07199999999995,0.0
53987.0,STARLINK-5112,PAYLOAD,2022-10-21 20:00:01,15.73241804,0.0002592,53.2187,13.0618,25.9836,329.3303,-0.00032567,-0.00046167,0.0,0 STARLINK-5112,1 53987U 22125Z   22294.83334491 -.00046167  00000-0 -32567-3 0  9990,2 53987  53.2187  13.0618 0002592  25.9836 329.3303 15.73241804  2886,6727.776,91.531,351.385,347.897,0.0
53987.0,STARLINK-5112,PAYLOAD,2022-10-21 22:00:00,15.73252738,0.0002521,53.219,12.6488,26.794,80.7568,-0.00057872,-0.00081258,0.0,0 STARLINK-5112,1 53987U 22125Z   22294.91667824 -.00081258  00000-0 -57872-3 0  9994,2 53987  53.2190  12.6488 0002521  26.7940  80.7568 15.73252738  1302,6727.745,91.53,351.306,347.914,0.0
53987.0,STARLINK-5112,PAYLOAD,2022-10-22 12:00:00,15.73225538,0.0002669,53.2189,9.7632,25.1236,148.0887,0.00023994,0.00033227,0.0,0 STARLINK-5112,1 53987U 22125Z   22295.50001157  .00033227  00000-0  23994-3 0  9990,2 53987  53.2189   9.7632 0002669  25.1236 148.0887 15.73225538  2998,6727.821999999999,91.532,351.483,347.892,0.0
53987.0,STARLINK-5112,PAYLOAD,2022-10-22 14:00:01,15.73237598,0.0002703,53.219,9.3513,24.0018,261.4496,0.00011533,0.00015622,0.0,0 STARLINK-5112,1 53987U 22125Z   22295.58334491  .00015622  00000-0  11533-3 0  9993,2 53987  53.2190   9.3513 0002703  24.0018 261.4496 15.73237598  1308,6727.788000000001,91.531,351.472,347.834,0.0
53987.0,STARLINK-5112,PAYLOAD,2022-10-22 22:00:00,15.73260334,0.000244,53.2186,7.7003,20.1019,354.3465,-0.00060531,-0.00084952,0.0,0 STARLINK-5112,1 53987U 22125Z   22295.91667824 -.00084952  00000-0 -60531-3 0  9995,2 53987  53.2186   7.7003 0002440  20.1019 354.3465 15.73260334  1307,6727.723000000001,91.53,351.23,347.94699999999995,0.0
53987.0,STARLINK-5112,PAYLOAD,2022-10-23 04:00:01,15.73179639,0.0002342,53.2187,6.4623,19.47,331.7788,0.00072965,0.00102961,0.0,0 STARLINK-5112,1 53987U 22125Z   22296.16668981  .00102961  00000-0  72965-3 0  9991,2 53987  53.2187   6.4623 0002342  19.4700 331.7788 15.73179639  3093,6727.953,91.534,351.394,348.24300000000005,0.0
53987.0,STARLINK-5112,PAYLOAD,2022-10-23 14:00:01,15.732718599999998,0.0002638999999999,53.2189,4.4031,15.0758,177.3262,-0.00012544,-0.00018246,0.0,0 STARLINK-5112,1 53987U 22125Z   22296.58334491 -.00018246  00000-0 -12544-3 0  9994,2 53987  53.2189   4.4031 0002639  15.0758 177.3262 15.73271860  1302,6727.69,91.529,351.331,347.78,0.0
53987.0,STARLINK-5112,PAYLOAD,2022-10-23 20:00:01,15.73284903,0.0002575,53.2188,3.1648,14.0193,155.1335,-0.00090153,-0.00125754,0.0,0 STARLINK-5112,1 53987U 22125Z   22296.83334491 -.00125754  00000-0 -90153-3 0  9997,2 53987  53.2188   3.1648 0002575  14.0193 155.1335 15.73284903  3200,6727.653,91.528,351.25,347.786,0.0
53987.0,STARLINK-5112,PAYLOAD,2022-10-23 22:00:00,15.73278748,0.0002493,53.219,2.7519,13.9243,267.478,-0.0011145,-0.00154743,0.0,0 STARLINK-5112,1 53987U 22125Z   22296.91667824 -.00154743  00000-0 -11145-2 0  9998,2 53987  53.2190   2.7519 0002493  13.9243 267.4780 15.73278748  1308,6727.670999999999,91.529,351.213,347.858,0.0
53987.0,STARLINK-5112,PAYLOAD,2022-10-24 14:00:01,15.73014334,0.0002831,53.2188,359.4548,16.9493,82.2672,0.0014423,0.00205196,0.0,0 STARLINK-5112,1 53987U 22125Z   22297.58334491  .00205196  00000-0  14423-2 0  9992,2 53987  53.2188 359.4548 0002831  16.9493  82.2672 15.73014334  1307,6728.425,91.544,352.194,348.385,0.0
53987.0,STARLINK-5112,PAYLOAD,2022-10-24 20:00:01,15.73165241,0.0002728999999999,53.2183,358.2168,14.8261,60.9554,0.00016986,0.00023251,0.0,0 STARLINK-5112,1 53987U 22125Z   22297.83334491  .00023251  00000-0  16986-3 0  9997,2 53987  53.2183 358.2168 0002729  14.8261  60.9554 15.73165241  3367,6727.994000000002,91.535,351.695,348.023,0.0
53987.0,STARLINK-5112,PAYLOAD,2022-10-24 22:00:00,15.73151683,0.000265,53.2185,357.8039,15.1174,172.8799,0.00027274,0.00037753,0.0,0 STARLINK-5112,1 53987U 22125Z   22297.91667824  .00037753  00000-0  27274-3 0  9999,2 53987  53.2185 357.8039 0002650  15.1174 172.8799 15.73151683  1302,6728.033,91.536,351.681,348.115,0.0
53987.0,STARLINK-5112,PAYLOAD,2022-10-25 14:00:01,15.73221917,0.0002853,53.2184,354.5071,14.1044,351.7197,-0.00013671,-0.00019786,0.0,0 STARLINK-5112,1 53987U 22125Z   22298.58334491 -.00019786  00000-0 -13671-3 0  9998,2 53987  53.2184 354.5071 0002853  14.1044 351.7197 15.73221917  1309,6727.833000000001,91.532,351.617,347.778,0.0
53987.0,STARLINK-5112,PAYLOAD,2022-10-25 22:00:01,15.73202854,0.0002715,53.2186,352.8557,13.9235,80.9159,0.00018397,0.00025281,0.0,0 STARLINK-5112,1 53987U 22125Z   22298.91668981  .00025281  00000-0  18397-3 0  9994,2 53987  53.2186 352.8557 0002715  13.9235  80.9159 15.73202854  1305,6727.887,91.533,351.579,347.925,0.0
53987.0,STARLINK-5112,PAYLOAD,2022-10-26 04:00:00,15.73232825,0.0002759,53.2187,351.6181,18.9307,52.5439,-0.00022831,-0.00032592,0.0,0 STARLINK-5112,1 53987U 22125Z   22299.16667824 -.00032592  00000-0 -22831-3 0  9990,2 53987  53.2187 351.6181 0002759  18.9307  52.5439 15.73232825  3577,6727.802,91.531,351.523,347.81,0.0
53987.0,STARLINK-5112,PAYLOAD,2022-10-26 14:00:01,15.73181061,0.0003148,53.2183,349.5585,19.6017,253.05900000000003,0.00067266,0.00094793,0.0,0 STARLINK-5112,1 53987U 22125Z   22299.58334491  .00094793  00000-0  67266-3 0  9997,2 53987  53.2183 349.5585 0003148  19.6017 253.0590 15.73181061  1306,6727.949000000001,91.534,351.932,347.696,0.0
53987.0,STARLINK-5112,PAYLOAD,2022-10-26 20:00:01,15.73277326,0.0002916,53.218,348.3199,18.7178,230.6364,-0.00062753,-0.00088089,0.0,0 STARLINK-5112,1 53987U 22125Z   22299.83334491 -.00088089  00000-0 -62753-3 0  9994,2 53987  53.2180 348.3199 0002916  18.7178 230.6364 15.73277326  3673,6727.675,91.529,351.50199999999984,347.57800000000015,0.0
53987.0,STARLINK-5112,PAYLOAD,2022-10-26 22:00:00,15.73264012,0.0002821,53.2181,347.907,17.7993,343.807,-0.00060173,-0.00084479,0.0,0 STARLINK-5112,1 53987U 22125Z   22299.91667824 -.00084479  00000-0 -60173-3 0  9995,2 53987  53.2181 347.9070 0002821  17.7993 343.8070 15.73264012  1303,6727.7130000000025,91.529,351.476,347.68,0.0
53987.0,STARLINK-5112,PAYLOAD,2022-10-27 12:00:02,15.73171486,0.000302,53.218,345.0222,13.8667,53.4812,0.00055617,0.00078079,0.0,0 STARLINK-5112,1 53987U 22125Z   22300.50002315  .00078079  00000-0  55617-3 0  9995,2 53987  53.2180 345.0222 0003020  13.8667  53.4812 15.73171486  3781,6727.976,91.535,351.87300000000016,347.81,0.0
